IRIDIUM 144             
1 43249U 18030A   25311.29693707  .00000011  00000+0 -31893-5 0  9990
2 43249  86.4002  23.1574 0001928  99.0884 261.0530 14.34218190398330
IRIDIUM 149             
1 43250U 18030B   25310.67536401  .00000003  00000+0 -58936-5 0  9998
2 43250  86.4001  23.3868 0002052  97.3603 262.7826 14.34217507398267
IRIDIUM 157             
1 43251U 18030C   25311.25253959  .00000217  00000+0  70418-4 0  9992
2 43251  86.4006  23.1940 0002327  98.0299 262.1161 14.34219019398329
IRIDIUM 140             
1 43252U 18030D   25311.27156677  .00000169  00000+0  53302-4 0  9993
2 43252  86.4008  23.1993 0001972  95.3068 264.8352 14.34218472398388
IRIDIUM 145             
1 43253U 18030E   25311.25888114  .00000120  00000+0  35715-4 0  9995
2 43253  86.4005  23.1771 0001843 100.9212 259.2192 14.34218375398316
IRIDIUM 146             
1 43254U 18030F   25311.23985393  .00000136  00000+0  41633-4 0  9994
2 43254  86.4004  23.1979 0002013 100.0270 260.1153 14.34218377398322
IRIDIUM 148             
1 43255U 18030G   25311.27791025  .00000081  00000+0  21714-4 0  9993
2 43255  86.4007  23.2220 0002244  99.8950 260.2499 14.34217823398365
IRIDIUM 142             
1 43256U 18030H   25311.24619378  .00000338  00000+0  11379-3 0  9991
2 43256  86.4006  23.1324 0001813 104.9992 255.1405 14.34220150398327
